NORAD_CAT_ID,OBJECT_NAME,OBJECT_TYPE,EPOCH,MEAN_MOTION,ECCENTRICITY,INCLINATION,RA_OF_ASC_NODE,ARG_OF_PERICENTER,MEAN_ANOMALY,BSTAR,MEAN_MOTION_DOT,MEAN_MOTION_DDOT,TLE_LINE0,TLE_LINE1,TLE_LINE2,SEMIMAJOR_AXIS,PERIOD,APOGEE,PERIGEE,DECAYED
53548.0,STARLINK-4513,PAYLOAD,2023-10-04 20:31:41,15.08852302,0.0001396,53.2166,85.2764,80.9533,279.1617,0.00037588,5.701e-05,0.0,0 STARLINK-4513,1 53548U 22101X   23277.85534095  .00005701  00000-0  37588-3 0  9998,2 53548  53.2166  85.2764 0001396  80.9533 279.1617 15.08852302 62420,6917.843,95.437,540.674,538.742,0.0
53548.0,STARLINK-4513,PAYLOAD,2023-10-05 10:50:09,15.08837718,0.00017,53.2154,82.6004,94.8671,265.2516,0.00012928,1.77e-05,0.0,0 STARLINK-4513,1 53548U 22101X   23278.45150324  .00001770  00000-0  12928-3 0  9997,2 53548  53.2154  82.6004 0001700  94.8671 265.2516 15.08837718 62519,6917.887,95.438,540.928,538.576,0.0
53548.0,STARLINK-4513,PAYLOAD,2023-10-05 18:47:05,15.08842759,0.0001521,53.2159,81.1133,82.1035,278.0129,0.00015088,2.114e-05,0.0,0 STARLINK-4513,1 53548U 22101X   23278.78270487  .00002114  00000-0  15088-3 0  9999,2 53548  53.2159  81.1133 0001521  82.1035 278.0129 15.08842759 62564,6917.872,95.437,540.789,538.685,0.0
53548.0,STARLINK-4513,PAYLOAD,2023-10-06 04:19:24,15.08841575,0.0001568,53.216,79.3294,82.7967,277.3203,0.00012209,1.656e-05,0.0,0 STARLINK-4513,1 53548U 22101X   23279.18014583  .00001656  00000-0  12209-3 0  9999,2 53548  53.2160  79.3294 0001568  82.7967 277.3203 15.08841575 62621,6917.876,95.437,540.825,538.656,0.0
53548.0,STARLINK-4513,PAYLOAD,2023-10-06 17:02:29,15.08841227,0.0001452,53.2161,76.9491,91.9737,268.1421,0.00014411,2.006e-05,0.0,0 STARLINK-4513,1 53548U 22101X   23279.71006739  .00002006  00000-0  14411-3 0  9999,2 53548  53.2161  76.9491 0001452  91.9737 268.1421 15.08841227 62706,6917.877,95.437,540.746,538.737,0.0
53548.0,STARLINK-4513,PAYLOAD,2023-10-07 13:42:30,15.08840975,0.0001566,53.2159,73.0843,88.0613,272.0558,0.00019896,2.88e-05,0.0,0 STARLINK-4513,1 53548U 22101X   23280.57119027  .00002880  00000-0  19896-3 0  9992,2 53548  53.2159  73.0843 0001566  88.0613 272.0558 15.08840975 62836,6917.877,95.437,540.826,538.659,0.0
53548.0,STARLINK-4513,PAYLOAD,2023-10-07 16:53:16,15.08845026,0.0001529,53.216,72.4891,89.0965,271.0203,0.00020391,2.959e-05,0.0,0 STARLINK-4513,1 53548U 22101X   23280.70366806  .00002959  00000-0  20391-3 0  9995,2 53548  53.2160  72.4891 0001529  89.0965 271.0203 15.08845026 62854,6917.865,95.437,540.788,538.672,0.0
53548.0,STARLINK-4513,PAYLOAD,2023-10-08 13:33:17,15.08839927,0.000151,53.2172,68.624,97.1454,262.971,0.00014874,2.08e-05,0.0,0 STARLINK-4513,1 53548U 22101X   23281.56479078  .00002080  00000-0  14874-3 0  9990,2 53548  53.2172  68.6240 0001510  97.1454 262.9710 15.08839927 62984,6917.881,95.438,540.79,538.701,0.0
53548.0,STARLINK-4513,PAYLOAD,2023-10-08 16:44:03,15.08846292,0.0001285,53.2169,68.0294,86.5648,273.5491,0.00023483,3.452e-05,0.0,0 STARLINK-4513,1 53548U 22101X   23281.69726812  .00003452  00000-0  23483-3 0  9995,2 53548  53.2169  68.0294 0001285  86.5648 273.5491 15.08846292 63000,6917.861,95.437,540.615,538.837,0.0
53548.0,STARLINK-4513,PAYLOAD,2023-10-08 19:54:49,15.08851686,0.0001363,53.2168,67.4338,85.9487,274.1661,0.00022843,3.351e-05,0.0,0 STARLINK-4513,1 53548U 22101X   23281.82974469  .00003351  00000-0  22843-3 0  9990,2 53548  53.2168  67.4338 0001363  85.9487 274.1661 15.08851686 63023,6917.845,95.437,540.653,538.767,0.0
53548.0,STARLINK-4513,PAYLOAD,2023-10-09 02:16:23,15.08835998,0.000159,53.217,66.2454,91.0645,269.0529,-1.3143e-05,-4.97e-06,0.0,0 STARLINK-4513,1 53548U 22101X   23282.09471171 -.00000497  00000-0 -13143-4 0  9996,2 53548  53.2170  66.2454 0001590  91.0645 269.0529 15.08835998 63066,6917.893,95.438,540.858,538.658,0.0
53548.0,STARLINK-4513,PAYLOAD,2023-10-09 13:24:04,15.08842145,0.000152,53.2179,64.163,99.5241,260.5923,9.8855e-05,1.286e-05,0.0,0 STARLINK-4513,1 53548U 22101X   23282.55838955  .00001286  00000-0  98855-4 0  9992,2 53548  53.2179  64.1630 0001520  99.5241 260.5923 15.08842145 63130,6917.874,95.437,540.79,538.687,0.0
53548.0,STARLINK-4513,PAYLOAD,2023-10-09 16:34:50,15.08849703,0.0001412,53.2175,63.5702,91.5756,268.5398,0.00019692,2.848e-05,0.0,0 STARLINK-4513,1 53548U 22101X   23282.69086561  .00002848  00000-0  19692-3 0  9991,2 53548  53.2175  63.5702 0001412  91.5756 268.5398 15.08849703 63155,6917.851,95.437,540.693,538.739,0.0
53548.0,STARLINK-4513,PAYLOAD,2023-10-10 10:04:05,15.08844721,0.0001317,53.2177,60.2992,90.9233,269.191,2.4497e-05,1.02e-06,0.0,0 STARLINK-4513,1 53548U 22101X   23283.41950702  .00000102  00000-0  24497-4 0  9990,2 53548  53.2177  60.2992 0001317  90.9233 269.1910 15.08844721 63263,6917.866,95.437,540.642,538.82,0.0
53548.0,STARLINK-4513,PAYLOAD,2023-10-10 13:14:51,15.08845866,0.0001374,53.2183,59.7059,94.4339,265.681,4.0286e-05,3.53e-06,0.0,0 STARLINK-4513,1 53548U 22101X   23283.55198672  .00000353  00000-0  40286-4 0  9997,2 53548  53.2183  59.7059 0001374  94.4339 265.6810 15.08845866 63289,6917.862,95.437,540.678,538.777,0.0
53548.0,STARLINK-4513,PAYLOAD,2023-10-10 19:36:23,15.08855877,0.0001199,53.218,58.5125,76.7159,283.3966,0.00017939,2.569e-05,0.0,0 STARLINK-4513,1 53548U 22101X   23283.81693936  .00002569  00000-0  17939-3 0  9998,2 53548  53.2180  58.5125 0001199  76.7159 283.3966 15.08855877 63322,6917.832,95.437,540.526,538.867,0.0
53548.0,STARLINK-4513,PAYLOAD,2023-10-11 08:19:30,15.08826741,0.0001351,53.2177,56.1362,83.4542,276.6604,-4.3991e-05,-9.88e-06,0.0,0 STARLINK-4513,1 53548U 22101X   23284.34687718 -.00000988  00000-0 -43991-4 0  9991,2 53548  53.2177  56.1362 0001351  83.4542 276.6604 15.08826741 63407,6917.921,95.438,540.721,538.851,0.0
53548.0,STARLINK-4513,PAYLOAD,2023-10-11 13:05:39,15.08827009,0.0001387,53.2189,55.2472,90.368,269.7471,-0.00016615,-2.93e-05,0.0,0 STARLINK-4513,1 53548U 22101X   23284.54559547 -.00002930  00000-0 -16615-3 0  9992,2 53548  53.2189  55.2472 0001387  90.3680 269.7471 15.08827009 63437,6917.92,95.438,540.745,538.826,0.0
53548.0,STARLINK-4513,PAYLOAD,2023-10-11 16:16:25,15.08835618,0.000161,53.2188,54.6502,75.2823,284.8347,-2.0518e-05,-6.15e-06,0.0,0 STARLINK-4513,1 53548U 22101X   23284.67807544 -.00000615  00000-0 -20518-4 0  9995,2 53548  53.2188  54.6502 0001610  75.2823 284.8347 15.08835618 63450,6917.894,95.438,540.873,538.645,0.0
53548.0,STARLINK-4513,PAYLOAD,2023-10-12 14:31:49,15.08851589,0.0001382,53.2175,50.4858,88.6711,271.444,0.00067836,0.00010528,0.0,0 STARLINK-4513,1 53548U 22101X   23285.60543339  .00010528  00000-0  67836-3 0  9993,2 53548  53.2175  50.4858 0001382  88.6711 271.4440 15.08851589 63590,6917.845,95.437,540.666,538.754,0.0
53548.0,STARLINK-4513,PAYLOAD,2023-10-12 16:07:12,15.08855378,0.0001415,53.2177,50.189,89.1145,271.0009,0.00086209,0.00013465,0.0,0 STARLINK-4513,1 53548U 22101X   23285.67167309  .00013465  00000-0  86209-3 0  9997,2 53548  53.2177  50.1890 0001415  89.1145 271.0009 15.08855378 63608,6917.833,95.437,540.677,538.72,0.0
53548.0,STARLINK-4513,PAYLOAD,2023-10-13 01:39:31,15.08855924,0.0001414,53.2182,48.4022,80.4605,279.6547,0.00057321,8.85e-05,0.0,0 STARLINK-4513,1 53548U 22101X   23286.06911080  .00008850  00000-0  57321-3 0  9999,2 53548  53.2182  48.4022 0001414  80.4605 279.6547 15.08855924 63669,6917.832,95.437,540.675,538.719,0.0
53548.0,STARLINK-4513,PAYLOAD,2023-10-13 14:22:35,15.08863702,0.0001307,53.2175,46.0225,83.4765,276.6376,0.00057759,8.922e-05,0.0,0 STARLINK-4513,1 53548U 22101X   23286.59902381  .00008922  00000-0  57759-3 0  9996,2 53548  53.2175  46.0225 0001307  83.4765 276.6376 15.08863702 63740,6917.808,95.436,540.577,538.769,0.0
53548.0,STARLINK-4513,PAYLOAD,2023-10-14 14:13:22,15.08846292,0.0001426,53.2181,41.5644,87.1518,272.9638,0.00023512,3.457e-05,0.0,0 STARLINK-4513,1 53548U 22101X   23287.59262585  .00003457  00000-0  23512-3 0  9990,2 53548  53.2181  41.5644 0001426  87.1518 272.9638 15.08846292 63892,6917.861,95.437,540.713,538.74,0.0
53548.0,STARLINK-4513,PAYLOAD,2023-10-14 17:24:09,15.08845574,0.0001441,53.218,40.9696,86.8018,273.3139,0.00025522,3.777e-05,0.0,0 STARLINK-4513,1 53548U 22101X   23287.72510625  .00003777  00000-0  25522-3 0  9994,2 53548  53.2180  40.9696 0001441  86.8018 273.3139 15.08845574 63915,6917.863,95.437,540.725,538.731,0.0
53548.0,STARLINK-4513,PAYLOAD,2023-10-15 12:28:47,15.0882513,0.0001751,53.2189,37.395,93.1341,266.9851,-8.2758e-05,-1.604e-05,0.0,0 STARLINK-4513,1 53548U 22101X   23288.51999938 -.00001604  00000-0 -82758-4 0  9994,2 53548  53.2189  37.3950 0001751  93.1341 266.9851 15.08825130 64030,6917.926,95.438,541.002,538.58,0.0
53548.0,STARLINK-4513,PAYLOAD,2023-10-15 14:04:10,15.08828311,0.0001434,53.2174,37.101,93.0494,267.0662,5.6104e-05,6.05e-06,0.0,0 STARLINK-4513,1 53548U 22101X   23288.58623656  .00000605  00000-0  56104-4 0  9996,2 53548  53.2174  37.1010 0001434  93.0494 267.0662 15.08828311 64042,6917.916,95.438,540.773,538.789,0.0
53548.0,STARLINK-4513,PAYLOAD,2023-10-16 12:19:35,15.0884651,0.0001504,53.2183,32.9415,95.7573,264.3591,0.00073433,0.0001142,0.0,0 STARLINK-4513,1 53548U 22101X   23289.51360300  .00011420  00000-0  73433-3 0  9994,2 53548  53.2183  32.9415 0001504  95.7573 264.3591 15.08846510 64186,6917.86,95.437,540.766,538.685,0.0
53548.0,STARLINK-4513,PAYLOAD,2023-10-17 12:10:22,15.08850172,0.000145,53.2181,28.4833,77.1573,282.9581,0.00036018,5.451e-05,0.0,0 STARLINK-4513,1 53548U 22101X   23290.50720127  .00005451  00000-0  36018-3 0  9997,2 53548  53.2181  28.4833 0001450  77.1573 282.9581 15.08850172 64333,6917.849,95.437,540.717,538.711,0.0
53548.0,STARLINK-4513,PAYLOAD,2023-10-17 13:45:45,15.08853092,0.0001377,53.2178,28.1855,86.8698,273.2452,0.00036148,5.472e-05,0.0,0 STARLINK-4513,1 53548U 22101X   23290.57343929  .00005472  00000-0  36148-3 0  9992,2 53548  53.2178  28.1855 0001377  86.8698 273.2452 15.08853092 64348,6917.84,95.437,540.658,538.753,0.0
